STARLINK-5404           
1 54769U 22175M   24022.13122702 -.00001746  00000+0 -91599-4 0  9992
2 54769  53.2173 294.7474 0001673 106.8343 253.2832 15.08843364 62536
STARLINK-5448           
1 54770U 22175N   24022.14182714  .00003186  00000+0  21808-3 0  9997
2 54770  53.2170 279.8490 0001471 106.6380 253.4774 15.08851097 62744
STARLINK-5451           
1 54771U 22175P   24022.10773995  .00002233  00000+0  15833-3 0  9994
2 54771  53.2175 289.6214 0001483  97.1598 262.9562 15.08848629 62603
STARLINK-5452           
1 54772U 22175Q   24022.13814670 -.00000627  00000+0 -21323-4 0  9993
2 54772  53.2169 279.8308 0001611 110.9916 249.1249 15.08839107 62748
STARLINK-5453           
1 54773U 22175R   24021.98401186  .00003726  00000+0  25201-3 0  9999
2 54773  53.2165 295.2532 0001234  96.7610 263.3523 15.08849686 62510
STARLINK-5454           
1 54774U 22175S   24022.02768959  .00000885  00000+0  73691-4 0  9990
2 54774  53.2173 279.8628 0001736  72.7030 287.4152 15.08840796 62733
STARLINK-5465           
1 54775U 22175T   24022.04657247  .00010763  00000+0  69398-3 0  9994
2 54775  53.2193 294.9335 0001854 110.7149 249.4042 15.08804430 62522
STARLINK-5470           
1 54776U 22175U   24022.02446121  .00000599  00000+0  55721-4 0  9992
2 54776  53.2175 294.8029 0001697  78.6803 281.4380 15.08842355 62525
STARLINK-5468           
1 54777U 22175V   24022.04287668 -.00000812  00000+0 -32914-4 0  9993
2 54777  53.2172 294.9070 0001404 101.8055 258.3095 15.08839361 60363
STARLINK-5450           
1 54778U 22175W   24021.99829473 -.00000401  00000+0 -71019-5 0  9997
2 54778  53.2180 280.3795 0001698 107.3535 252.7643 15.08838296 62720
STARLINK-5447           
1 54779U 22175X   24022.13445630 -.00000233  00000+0  34798-5 0  9999
2 54779  53.2175 279.8022 0001815 122.7223 237.3944 15.08844456 62747
STARLINK-5449           
1 54780U 22175Y   24022.84467793  .00000651  00000+0  59027-4 0  9997
2 54780  53.2170 276.4169 0001835 124.6091 235.5074 15.08842119 60695
STARLINK-5443           
1 54781U 22175Z   24022.12708947  .00001193  00000+0  93044-4 0  9997
2 54781  53.2166 279.7516 0001538 102.0192 258.0972 15.08843410 62745
STARLINK-5437           
1 54782U 22175AA  24022.80860665  .00024700  00000+0  86492-3 0  9996
2 54782  53.2192 226.8402 0004536 179.8767 180.2236 15.29370526 61387
STARLINK-5439           
1 54783U 22175AB  24022.12340499  .00002588  00000+0  18059-3 0  9994
2 54783  53.2158 279.7386 0001533  96.3535 263.7632 15.08844368 62743
STARLINK-5442           
1 54784U 22175AC  24021.97295923  .00001393  00000+0  10556-3 0  9995
2 54784  53.2182 295.1875 0001723 105.3442 254.7741 15.08847014 62512
STARLINK-5440           
1 54785U 22175AD  24022.83363709  .00000375  00000+0  41645-4 0  9993
2 54785  53.2158 236.4336 0001283 102.7419 257.3717 15.08837819 61256
