[{"OBJECT_NAME":"STARLINK-5404","OBJECT_ID":"2022-175M","EPOCH":"2024-01-22T03:08:58.014528","MEAN_MOTION":15.08843364,"ECCENTRICITY":0.0001673,"INCLINATION":53.2173,"RA_OF_ASC_NODE":294.7474,"ARG_OF_PERICENTER":106.8343,"MEAN_ANOMALY":253.2832,"EPHEMERIS_TYPE":0,"CLASSIFICATION_TYPE":"U","NORAD_CAT_ID":54769,"ELEMENT_SET_NO":999,"REV_AT_EPOCH":6253,"BSTAR":-9.1599e-5,"MEAN_MOTION_DOT":-1.746e-5,"MEAN_MOTION_DDOT":0},{"OBJECT_NAME":"STARLINK-5448","OBJECT_ID":"2022-175N","EPOCH":"2024-01-22T03:24:13.864896","MEAN_MOTION":15.08851097,"ECCENTRICITY":0.0001471,"INCLINATION":53.217,"RA_OF_ASC_NODE":279.849,"ARG_OF_PERICENTER":106.638,"MEAN_ANOMALY":253.4774,"EPHEMERIS_TYPE":0,"CLASSIFICATION_TYPE":"U","NORAD_CAT_ID":54770,"ELEMENT_SET_NO":999,"REV_AT_EPOCH":6274,"BSTAR":0.00021808,"MEAN_MOTION_DOT":3.186e-5,"MEAN_MOTION_DDOT":0},{"OBJECT_NAME":"STARLINK-5451","OBJECT_ID":"2022-175P","EPOCH":"2024-01-22T02:35:08.731680","MEAN_MOTION":15.08848629,"ECCENTRICITY":0.0001483,"INCLINATION":53.2175,"RA_OF_ASC_NODE":289.6214,"ARG_OF_PERICENTER":97.1598,"MEAN_ANOMALY":262.9562,"EPHEMERIS_TYPE":0,"CLASSIFICATION_TYPE":"U","NORAD_CAT_ID":54771,"ELEMENT_SET_NO":999,"REV_AT_EPOCH":6260,"BSTAR":0.00015833,"MEAN_MOTION_DOT":2.233e-5,"MEAN_MOTION_DDOT":0},{"OBJECT_NAME":"STARLINK-5452","OBJECT_ID":"2022-175Q","EPOCH":"2024-01-22T03:18:55.874880","MEAN_MOTION":15.08839107,"ECCENTRICITY":0.0001611,"INCLINATION":53.2169,"RA_OF_ASC_NODE":279.8308,"ARG_OF_PERICENTER":110.9916,"MEAN_ANOMALY":249.1249,"EPHEMERIS_TYPE":0,"CLASSIFICATION_TYPE":"U","NORAD_CAT_ID":54772,"ELEMENT_SET_NO":999,"REV_AT_EPOCH":6274,"BSTAR":-2.1323e-5,"MEAN_MOTION_DOT":-6.27e-6,"MEAN_MOTION_DDOT":0},{"OBJECT_NAME":"STARLINK-5453","OBJECT_ID":"2022-175R","EPOCH":"2024-01-21T23:36:58.624704","MEAN_MOTION":15.08849686,"ECCENTRICITY":0.0001234,"INCLINATION":53.2165,"RA_OF_ASC_NODE":295.2532,"ARG_OF_PERICENTER":96.761,"MEAN_ANOMALY":263.3523,"EPHEMERIS_TYPE":0,"CLASSIFICATION_TYPE":"U","NORAD_CAT_ID":54773,"ELEMENT_SET_NO":999,"REV_AT_EPOCH":6251,"BSTAR":0.00025201,"MEAN_MOTION_DOT":3.726e-5,"MEAN_MOTION_DDOT":0},{"OBJECT_NAME":"STARLINK-5454","OBJECT_ID":"2022-175S","EPOCH":"2024-01-22T00:39:52.380576","MEAN_MOTION":15.08840796,"ECCENTRICITY":0.0001736,"INCLINATION":53.2173,"RA_OF_ASC_NODE":279.8628,"ARG_OF_PERICENTER":72.703,"MEAN_ANOMALY":287.4152,"EPHEMERIS_TYPE":0,"CLASSIFICATION_TYPE":"U","NORAD_CAT_ID":54774,"ELEMENT_SET_NO":999,"REV_AT_EPOCH":6273,"BSTAR":7.3691e-5,"MEAN_MOTION_DOT":8.85e-6,"MEAN_MOTION_DDOT":0},{"OBJECT_NAME":"STARLINK-5465","OBJECT_ID":"2022-175T","EPOCH":"2024-01-22T01:07:03.861408","MEAN_MOTION":15.0880443,"ECCENTRICITY":0.0001854,"INCLINATION":53.2193,"RA_OF_ASC_NODE":294.9335,"ARG_OF_PERICENTER":110.7149,"MEAN_ANOMALY":249.4042,"EPHEMERIS_TYPE":0,"CLASSIFICATION_TYPE":"U","NORAD_CAT_ID":54775,"ELEMENT_SET_NO":999,"REV_AT_EPOCH":6252,"BSTAR":0.00069398,"MEAN_MOTION_DOT":0.00010763,"MEAN_MOTION_DDOT":0},{"OBJECT_NAME":"STARLINK-5470","OBJECT_ID":"2022-175U","EPOCH":"2024-01-22T00:35:13.448544","MEAN_MOTION":15.08842355,"ECCENTRICITY":0.0001697,"INCLINATION":53.2175,"RA_OF_ASC_NODE":294.8029,"ARG_OF_PERICENTER":78.6803,"MEAN_ANOMALY":281.438,"EPHEMERIS_TYPE":0,"CLASSIFICATION_TYPE":"U","NORAD_CAT_ID":54776,"ELEMENT_SET_NO":999,"REV_AT_EPOCH":6252,"BSTAR":5.5721e-5,"MEAN_MOTION_DOT":5.99e-6,"MEAN_MOTION_DDOT":0},{"OBJECT_NAME":"STARLINK-5468","OBJECT_ID":"2022-175V","EPOCH":"2024-01-22T01:01:44.545152","MEAN_MOTION":15.08839361,"ECCENTRICITY":0.0001404,"INCLINATION":53.2172,"RA_OF_ASC_NODE":294.907,"ARG_OF_PERICENTER":101.8055,"MEAN_ANOMALY":258.3095,"EPHEMERIS_TYPE":0,"CLASSIFICATION_TYPE":"U","NORAD_CAT_ID":54777,"ELEMENT_SET_NO":999,"REV_AT_EPOCH":6036,"BSTAR":-3.2914e-5,"MEAN_MOTION_DOT":-8.12e-6,"MEAN_MOTION_DDOT":0},{"OBJECT_NAME":"STARLINK-5450","OBJECT_ID":"2022-175W","EPOCH":"2024-01-21T23:57:32.664672","MEAN_MOTION":15.08838296,"ECCENTRICITY":0.0001698,"INCLINATION":53.218,"RA_OF_ASC_NODE":280.3795,"ARG_OF_PERICENTER":107.3535,"MEAN_ANOMALY":252.7643,"EPHEMERIS_TYPE":0,"CLASSIFICATION_TYPE":"U","NORAD_CAT_ID":54778,"ELEMENT_SET_NO":999,"REV_AT_EPOCH":6272,"BSTAR":-7.1019e-6,"MEAN_MOTION_DOT":-4.01e-6,"MEAN_MOTION_DDOT":0},{"OBJECT_NAME":"STARLINK-5447","OBJECT_ID":"2022-175X","EPOCH":"2024-01-22T03:13:37.024320","MEAN_MOTION":15.08844456,"ECCENTRICITY":0.0001815,"INCLINATION":53.2175,"RA_OF_ASC_NODE":279.8022,"ARG_OF_PERICENTER":122.7223,"MEAN_ANOMALY":237.3944,"EPHEMERIS_TYPE":0,"CLASSIFICATION_TYPE":"U","NORAD_CAT_ID":54779,"ELEMENT_SET_NO":999,"REV_AT_EPOCH":6274,"BSTAR":3.4798e-6,"MEAN_MOTION_DOT":-2.33e-6,"MEAN_MOTION_DDOT":0},{"OBJECT_NAME":"STARLINK-5449","OBJECT_ID":"2022-175Y","EPOCH":"2024-01-22T20:16:20.173152","MEAN_MOTION":15.08842119,"ECCENTRICITY":0.0001835,"INCLINATION":53.217,"RA_OF_ASC_NODE":276.4169,"ARG_OF_PERICENTER":124.6091,"MEAN_ANOMALY":235.5074,"EPHEMERIS_TYPE":0,"CLASSIFICATION_TYPE":"U","NORAD_CAT_ID":54780,"ELEMENT_SET_NO":999,"REV_AT_EPOCH":6069,"BSTAR":5.9027e-5,"MEAN_MOTION_DOT":6.51e-6,"MEAN_MOTION_DDOT":0},{"OBJECT_NAME":"STARLINK-5443","OBJECT_ID":"2022-175Z","EPOCH":"2024-01-22T03:03:00.530208","MEAN_MOTION":15.0884341,"ECCENTRICITY":0.0001538,"INCLINATION":53.2166,"RA_OF_ASC_NODE":279.7516,"ARG_OF_PERICENTER":102.0192,"MEAN_ANOMALY":258.0972,"EPHEMERIS_TYPE":0,"CLASSIFICATION_TYPE":"U","NORAD_CAT_ID":54781,"ELEMENT_SET_NO":999,"REV_AT_EPOCH":6274,"BSTAR":9.3044e-5,"MEAN_MOTION_DOT":1.193e-5,"MEAN_MOTION_DDOT":0},{"OBJECT_NAME":"STARLINK-5437","OBJECT_ID":"2022-175AA","EPOCH":"2024-01-22T19:24:23.614560","MEAN_MOTION":15.29370526,"ECCENTRICITY":0.0004536,"INCLINATION":53.2192,"RA_OF_ASC_NODE":226.8402,"ARG_OF_PERICENTER":179.8767,"MEAN_ANOMALY":180.2236,"EPHEMERIS_TYPE":0,"CLASSIFICATION_TYPE":"U","NORAD_CAT_ID":54782,"ELEMENT_SET_NO":999,"REV_AT_EPOCH":6138,"BSTAR":0.00086492,"MEAN_MOTION_DOT":0.000247,"MEAN_MOTION_DDOT":0},{"OBJECT_NAME":"STARLINK-5439","OBJECT_ID":"2022-175AB","EPOCH":"2024-01-22T02:57:42.191136","MEAN_MOTION":15.08844368,"ECCENTRICITY":0.0001533,"INCLINATION":53.2158,"RA_OF_ASC_NODE":279.7386,"ARG_OF_PERICENTER":96.3535,"MEAN_ANOMALY":263.7632,"EPHEMERIS_TYPE":0,"CLASSIFICATION_TYPE":"U","NORAD_CAT_ID":54783,"ELEMENT_SET_NO":999,"REV_AT_EPOCH":6274,"BSTAR":0.00018059,"MEAN_MOTION_DOT":2.588e-5,"MEAN_MOTION_DDOT":0},{"OBJECT_NAME":"STARLINK-5442","OBJECT_ID":"2022-175AC","EPOCH":"2024-01-21T23:21:03.677472","MEAN_MOTION":15.08847014,"ECCENTRICITY":0.0001723,"INCLINATION":53.2182,"RA_OF_ASC_NODE":295.1875,"ARG_OF_PERICENTER":105.3442,"MEAN_ANOMALY":254.7741,"EPHEMERIS_TYPE":0,"CLASSIFICATION_TYPE":"U","NORAD_CAT_ID":54784,"ELEMENT_SET_NO":999,"REV_AT_EPOCH":6251,"BSTAR":0.00010556,"MEAN_MOTION_DOT":1.393e-5,"MEAN_MOTION_DDOT":0},{"OBJECT_NAME":"STARLINK-5440","OBJECT_ID":"2022-175AD","EPOCH":"2024-01-22T20:00:26.244576","MEAN_MOTION":15.08837819,"ECCENTRICITY":0.0001283,"INCLINATION":53.2158,"RA_OF_ASC_NODE":236.4336,"ARG_OF_PERICENTER":102.7419,"MEAN_ANOMALY":257.3717,"EPHEMERIS_TYPE":0,"CLASSIFICATION_TYPE":"U","NORAD_CAT_ID":54785,"ELEMENT_SET_NO":999,"REV_AT_EPOCH":6125,"BSTAR":4.1645e-5,"MEAN_MOTION_DOT":3.75e-6,"MEAN_MOTION_DDOT":0}]
